STARLINK-31696          
1 59435U 24065Q   26068.90309972 -.00000266  00000+0  31518-5 0  9991
2 59435  53.1601 280.5719 0001140 101.0378 259.0751 15.30191505108965
NUSHSAT1                
1 63211U 25052B   26068.64700493  .00023034  00000+0  74857-3 0  9997
2 63211  97.4095 325.7239 0005501  84.7512 275.4357 15.31903202 54882
